Experimental
x-comm
APRIZESAT 2             
1 28366U 04025A   17274.69533247  .00000047  00000-0  28577-4 0  9990
2 28366  98.3308 185.2587 0108969  91.5067 269.8605 14.36615029694883
SAUDICOMSAT 1           
1 28369U 04025D   17274.43899221  .00000142  00000-0  45611-4 0  9996
2 28369  98.2057 224.1189 0034769  57.9640 302.4925 14.52383883702153
SAUDICOMSAT 2           
1 28370U 04025E   17274.82000288  .00000093  00000-0  37058-4 0  9999
2 28370  98.3100 217.9243 0057698 184.6315 175.4351 14.47328061699864
APRIZESAT 1             
1 28372U 04025G   17274.80373702  .00000084  00000-0  33120-4 0  9999
2 28372  98.2647 220.6169 0047440 122.8705 237.7069 14.49512216700961
NANOSAT-1               
1 28493U 04049B   17275.20230597  .00000182  00000-0  36164-4 0  9998
2 28493  98.1935 345.8278 0005105  35.8577 324.2973 14.73351202686688
SAUDICOMSAT 7           
1 31119U 07012C   17274.80896774  .00000161  00000-0  40802-4 0  9991
2 31119  97.9617 233.7898 0061578  86.6614 274.1630 14.61608464557486
SAUDICOMSAT 6           
1 31121U 07012E   17275.10282953  .00000115  00000-0  33736-4 0  9993
2 31121  98.0266 226.7007 0077313 151.3601 209.1878 14.58408680556389
SAUDICOMSAT 5           
1 31124U 07012H   17274.82262887  .00000179  00000-0  43058-4 0  9996
2 31124  97.9227 238.2662 0052920  53.8133 306.7947 14.63299336558144
SAUDICOMSAT 3           
1 31125U 07012J   17274.82385333  .00000243  00000-0  53396-4 0  9997
2 31125  97.8830 243.0373 0043998  21.9390 338.3685 14.65022027558696
SAUDICOMSAT 4           
1 31127U 07012L   17274.70883671  .00000145  00000-0  38575-4 0  9997
2 31127  97.9935 230.2748 0069337 117.8293 242.9957 14.60119661556899
APRIZESAT 4             
1 35684U 09041D   17274.78917628  .00000198  00000-0  33718-4 0  9993
2 35684  98.1376 218.2367 0048544 113.4473 277.2627 14.79062806440834
APRIZESAT 3             
1 35686U 09041F   17275.00549835  .00000351  00000-0  44144-4 0  9998
2 35686  98.2803 279.0704 0073821  27.5718 332.9382 14.87118722443068
AISSAT 1                
1 36797U 10035C   17275.18926295  .00000418  00000-0  54364-4 0  9994
2 36797  98.0504  30.2303 0011423  14.4713 345.6827 14.85906332391191
